{
  "type": "FeatureCollection",
  "features": [
    {
      "type": "Feature",
      "properties": {
        "norad_id": 37781,
        "name": "HAIYANG-2A",
        "group": "resource",
        "lat": -51.291497175086434,
        "lon": 159.196042702093,
        "alt_km": 975.9864788175573,
        "timestamp": "2025-12-16T03:53:26.715692+00:00",
        "meta_object_name": "HAIYANG-2A",
        "meta_object_id": "2011-043A",
        "meta_epoch": "2025-12-15T07:36:41.281344",
        "meta_mean_motion": 13.78836398,
        "meta_eccentricity": 0.00016795,
        "meta_inclination": 99.3382,
        "meta_ra_of_asc_node": 350.2123,
        "meta_arg_of_pericenter": 79.5491,
        "meta_mean_anomaly": 280.585,
        "meta_ephemeris_type": 0,
        "meta_classification_type": "U",
        "meta_norad_cat_id": 37781,
        "meta_element_set_no": 999,
        "meta_rev_at_epoch": 72134,
        "meta_bstar": 0.00035240702,
        "meta_mean_motion_dot": 3.15e-06,
        "meta_mean_motion_ddot": 0,
        "tle_line1": "1 37781U 11043A   25349.31714446  .00000315  00000+0  35241-3 0  9994",
        "tle_line2": "2 37781  99.3382 350.2123 0001679  79.5491 280.5850 13.78836398721347"
      },
      "geometry": {
        "type": "Point",
        "coordinates": [
          159.196042702093,
          -51.291497175086434
        ]
      }
    },
    {
      "type": "Feature",
      "properties": {
        "norad_id": 37791,
        "name": "RASAT",
        "group": "resource",
        "lat": 4.163361888570757,
        "lon": 78.77725046244122,
        "alt_km": 660.3297521480872,
        "timestamp": "2025-12-16T03:53:26.715704+00:00",
        "meta_object_name": "RASAT",
        "meta_object_id": "2011-044D",
        "meta_epoch": "2025-12-15T08:33:13.296096",
        "meta_mean_motion": 14.67914839,
        "meta_eccentricity": 0.00218158,
        "meta_inclination": 98.0646,
        "meta_ra_of_asc_node": 78.575,
        "meta_arg_of_pericenter": 57.182,
        "meta_mean_anomaly": 12.1123,
        "meta_ephemeris_type": 0,
        "meta_classification_type": "U",
        "meta_norad_cat_id": 37791,
        "meta_element_set_no": 999,
        "meta_rev_at_epoch": 76621,
        "meta_bstar": 0.00014651643,
        "meta_mean_motion_dot": 7.92e-06,
        "meta_mean_motion_ddot": 0,
        "tle_line1": "1 37791U 11044D   25349.35640389  .00000792  00000+0  14652-3 0  9996",
        "tle_line2": "2 37791  98.0646  78.5750 0021815  57.1820  12.1123 14.67914839766218"
      },
      "geometry": {
        "type": "Point",
        "coordinates": [
          78.77725046244122,
          4.163361888570757
        ]
      }
    },
    {
      "type": "Feature",
      "properties": {
        "norad_id": 37841,
        "name": "SRMSAT",
        "group": "resource",
        "lat": -13.364264788606578,
        "lon": -51.903498539964,
        "alt_km": 858.7659825166311,
        "timestamp": "2025-12-16T03:53:26.715714+00:00",
        "meta_object_name": "SRMSAT",
        "meta_object_id": "2011-058D",
        "meta_epoch": "2025-12-15T08:21:30.921120",
        "meta_mean_motion": 14.11512323,
        "meta_eccentricity": 0.00118219,
        "meta_inclination": 19.9716,
        "meta_ra_of_asc_node": 92.1629,
        "meta_arg_of_pericenter": 342.2389,
        "meta_mean_anomaly": 56.0239,
        "meta_ephemeris_type": 0,
        "meta_classification_type": "U",
        "meta_norad_cat_id": 37841,
        "meta_element_set_no": 999,
        "meta_rev_at_epoch": 73181,
        "meta_bstar": 9.2524451e-05,
        "meta_mean_motion_dot": 4.35e-06,
        "meta_mean_motion_ddot": 0,
        "tle_line1": "1 37841U 11058D   25349.34827455  .00000435  00000+0  92524-4 0  9996",
        "tle_line2": "2 37841  19.9716  92.1629 0011821 342.2389  56.0239 14.11512323731819"
      },
      "geometry": {
        "type": "Point",
        "coordinates": [
          -51.903498539964,
          -13.364264788606578
        ]
      }
    },
    {
      "type": "Feature",
      "properties": {
        "norad_id": 38012,
        "name": "PLEIADES 1A",
        "group": "resource",
        "lat": 44.000690736129684,
        "lon": 54.89079662177142,
        "alt_km": 693.306248130044,
        "timestamp": "2025-12-16T03:53:26.715725+00:00",
        "meta_object_name": "PLEIADES 1A",
        "meta_object_id": "2011-076F",
        "meta_epoch": "2025-12-15T08:16:05.109312",
        "meta_mean_motion": 14.58565391,
        "meta_eccentricity": 0.00012516,
        "meta_inclination": 98.1821,
        "meta_ra_of_asc_node": 62.0727,
        "meta_arg_of_pericenter": 74.3709,
        "meta_mean_anomaly": 359.6895,
        "meta_ephemeris_type": 0,
        "meta_classification_type": "U",
        "meta_norad_cat_id": 38012,
        "meta_element_set_no": 999,
        "meta_rev_at_epoch": 74519,
        "meta_bstar": 0.00014491427,
        "meta_mean_motion_dot": 6.28e-06,
        "meta_mean_motion_ddot": 0,
        "tle_line1": "1 38012U 11076F   25349.34450358  .00000628  00000+0  14491-3 0  9991",
        "tle_line2": "2 38012  98.1821  62.0727 0001251  74.3709 359.6895 14.58565391745196"
      },
      "geometry": {
        "type": "Point",
        "coordinates": [
          54.89079662177142,
          44.000690736129684
        ]
      }
    },
    {
      "type": "Feature",
      "properties": {
        "norad_id": 38038,
        "name": "ZIYUAN 1-02C (ZY 1-02C)",
        "group": "resource",
        "lat": 58.51898350121806,
        "lon": 42.09172800370185,
        "alt_km": 757.5505787434004,
        "timestamp": "2025-12-16T03:53:26.715736+00:00",
        "meta_object_name": "ZIYUAN 1-02C (ZY 1-02C)",
        "meta_object_id": "2011-079A",
        "meta_epoch": "2025-12-15T07:51:54.098208",
        "meta_mean_motion": 14.38016199,
        "meta_eccentricity": 0.00073047,
        "meta_inclination": 98.4332,
        "meta_ra_of_asc_node": 55.2936,
        "meta_arg_of_pericenter": 131.5538,
        "meta_mean_anomaly": 291.0332,
        "meta_ephemeris_type": 0,
        "meta_classification_type": "U",
        "meta_norad_cat_id": 38038,
        "meta_element_set_no": 999,
        "meta_rev_at_epoch": 73278,
        "meta_bstar": 0.00022999507,
        "meta_mean_motion_dot": 6.53e-06,
        "meta_mean_motion_ddot": 0,
        "tle_line1": "1 38038U 11079A   25349.32770947  .00000653  00000+0  23000-3 0  9993",
        "tle_line2": "2 38038  98.4332  55.2936 0007304 131.5538 291.0332 14.38016199732782"
      },
      "geometry": {
        "type": "Point",
        "coordinates": [
          42.09172800370185,
          58.51898350121806
        ]
      }
    },
    {
      "type": "Feature",
      "properties": {
        "norad_id": 38046,
        "name": "ZIYUAN 3-1 (ZY 3-1)",
        "group": "resource",
        "lat": 24.081588396133927,
        "lon": 53.43360623439594,
        "alt_km": 360.4202481110533,
        "timestamp": "2025-12-16T03:53:26.715747+00:00",
        "meta_object_name": "ZIYUAN 3-1 (ZY 3-1)",
        "meta_object_id": "2012-001A",
        "meta_epoch": "2025-12-15T07:53:21.422688",
        "meta_mean_motion": 15.68978569,
        "meta_eccentricity": 0.00016088,
        "meta_inclination": 97.1755,
        "meta_ra_of_asc_node": 55.8079,
        "meta_arg_of_pericenter": 338.7655,
        "meta_mean_anomaly": 21.354,
        "meta_ephemeris_type": 0,
        "meta_classification_type": "U",
        "meta_norad_cat_id": 38046,
        "meta_element_set_no": 999,
        "meta_rev_at_epoch": 77537,
        "meta_bstar": 0.00046371558,
        "meta_mean_motion_dot": 0.00053483,
        "meta_mean_motion_ddot": 0,
        "tle_line1": "1 38046U 12001A   25349.32872017  .00053483  00000+0  46372-3 0  9995",
        "tle_line2": "2 38046  97.1755  55.8079 0001608 338.7655  21.3540 15.68978569775371"
      },
      "geometry": {
        "type": "Point",
        "coordinates": [
          53.43360623439594,
          24.081588396133927
        ]
      }
    },
    {
      "type": "Feature",
      "properties": {
        "norad_id": 38338,
        "name": "ARIRANG-3 (KOMPSAT-3)",
        "group": "resource",
        "lat": -19.003594979153036,
        "lon": -52.32955674320285,
        "alt_km": 689.1580458413246,
        "timestamp": "2025-12-16T03:53:26.715758+00:00",
        "meta_object_name": "ARIRANG-3 (KOMPSAT-3)",
        "meta_object_id": "2012-025B",
        "meta_epoch": "2025-12-15T08:15:49.864896",
        "meta_mean_motion": 14.617163,
        "meta_eccentricity": 0.00051864,
        "meta_inclination": 98.3325,
        "meta_ra_of_asc_node": 303.9533,
        "meta_arg_of_pericenter": 330.0921,
        "meta_mean_anomaly": 29.9983,
        "meta_ephemeris_type": 0,
        "meta_classification_type": "U",
        "meta_norad_cat_id": 38338,
        "meta_element_set_no": 999,
        "meta_rev_at_epoch": 72448,
        "meta_bstar": 0.00013400845,
        "meta_mean_motion_dot": 6.19e-06,
        "meta_mean_motion_ddot": 0,
        "tle_line1": "1 38338U 12025B   25349.34432714  .00000619  00000+0  13401-3 0  9993",
        "tle_line2": "2 38338  98.3325 303.9533 0005186 330.0921  29.9983 14.61716300724485"
      },
      "geometry": {
        "type": "Point",
        "coordinates": [
          -52.32955674320285,
          -19.003594979153036
        ]
      }
    }
  ]
}